{
    "links": {
        "self": "http://www.neowsapp.com/rest/v1/neo/3371136?api_key=iIulBulltgU6a56xZRHN4H3l9WmuAYTsLGpBGhQ2"
    },
    "id": "3371136",
    "neo_reference_id": "3371136",
    "name": "(2007 EG88)",
    "designation": "2007 EG88",
    "nasa_jpl_url": "http://ssd.jpl.nasa.gov/sbdb.cgi?sstr=3371136",
    "absolute_magnitude_h": 26.9,
    "estimated_diameter": {
        "kilometers": {
            "estimated_diameter_min": 0.0110803882,
            "estimated_diameter_max": 0.0247765013
        },
        "meters": {
            "estimated_diameter_min": 11.0803882126,
            "estimated_diameter_max": 24.7765012606
        },
        "miles": {
            "estimated_diameter_min": 0.0068850319,
            "estimated_diameter_max": 0.0153953994
        },
        "feet": {
            "estimated_diameter_min": 36.3529808636,
            "estimated_diameter_max": 81.2877363957
        }
    },
    "is_potentially_hazardous_asteroid": false,
    "close_approach_data": [
        {
            "close_approach_date": "2005-02-14",
            "close_approach_date_full": "2005-Feb-14 03:39",
            "epoch_date_close_approach": 1108352340000,
            "relative_velocity": {
                "kilometers_per_second": "16.6525843302",
                "kilometers_per_hour": "59949.3035885681",
                "miles_per_hour": "37250.16588813"
            },
            "miss_distance": {
                "astronomical": "0.3734537078",
                "lunar": "145.2734923342",
                "kilometers": "55867879.230482386",
                "miles": "34714690.4122374868"
            },
            "orbiting_body": "Earth"
        },
        {
            "close_approach_date": "2007-03-26",
            "close_approach_date_full": "2007-Mar-26 01:16",
            "epoch_date_close_approach": 1174871760000,
            "relative_velocity": {
                "kilometers_per_second": "5.3874328297",
                "kilometers_per_hour": "19394.7581870964",
                "miles_per_hour": "12051.1484968656"
            },
            "miss_distance": {
                "astronomical": "0.0193485162",
                "lunar": "7.5265728018",
                "kilometers": "2894496.811180494",
                "miles": "1798556.9182750572"
            },
            "orbiting_body": "Earth"
        },
        {
            "close_approach_date": "2009-05-25",
            "close_approach_date_full": "2009-May-25 03:45",
            "epoch_date_close_approach": 1243223100000,
            "relative_velocity": {
                "kilometers_per_second": "12.0835049839",
                "kilometers_per_hour": "43500.617942216",
                "miles_per_hour": "27029.5922985953"
            },
            "miss_distance": {
                "astronomical": "0.2231627796",
                "lunar": "86.8103212644",
                "kilometers": "33384676.491439452",
                "miles": "20744276.0469183576"
            },
            "orbiting_body": "Earth"
        }
    ],
    "orbital_data": {
        "orbit_id": "7",
        "orbit_determination_date": "2017-04-06 09:06:45",
        "first_observation_date": "2007-03-14",
        "last_observation_date": "2007-03-19",
        "data_arc_in_days": 5,
        "observations_used": 42,
        "orbit_uncertainty": "7",
        "minimum_orbit_intersection": ".0117998",
        "jupiter_tisserand_invariant": "4.255",
        "epoch_osculation": "2459000.5",
        "eccentricity": ".3748126904796225",
        "semi_major_axis": "1.614573570025538",
        "inclination": "1.003125381543247",
        "ascending_node_longitude": "168.4847645337423",
        "orbital_period": "749.3508172950785",
        "perihelion_distance": "1.009410906266977",
        "perihelion_argument": "27.40495891976128",
        "aphelion_distance": "2.219736233784099",
        "perihelion_time": "2458691.318337383580",
        "mean_anomaly": "148.5357671907115",
        "mean_motion": ".4804158368699551",
        "equinox": "J2000",
        "orbit_class": {
            "orbit_class_type": "APO",
            "orbit_class_description": "Near-Earth asteroid orbits which cross the Earth’s orbit similar to that of 1862 Apollo",
            "orbit_class_range": "a (semi-major axis) > 1.0 AU; q (perihelion) < 1.017 AU"
        }
    },
    "is_sentry_object": false
}